{
  "type": "FeatureCollection",
  "features": [
    {
      "type": "Feature",
      "properties": {
        "norad_id": 30359,
        "name": "FENGYUN 1C DEB",
        "group": "fengyun-1c-debris",
        "lat": -71.7551393694509,
        "lon": -158.37084365200622,
        "alt_km": 896.8263057538452,
        "timestamp": "2025-12-05T04:52:15.568228+00:00",
        "meta_object_name": "FENGYUN 1C DEB",
        "meta_object_id": "1999-025ABW",
        "meta_epoch": "2025-12-04T05:06:37.861344",
        "meta_mean_motion": 13.93916254,
        "meta_eccentricity": 0.0144806,
        "meta_inclination": 101.6274,
        "meta_ra_of_asc_node": 161.7346,
        "meta_arg_of_pericenter": 3.6292,
        "meta_mean_anomaly": 356.5876,
        "meta_ephemeris_type": 0,
        "meta_classification_type": "U",
        "meta_norad_cat_id": 30359,
        "meta_element_set_no": 999,
        "meta_rev_at_epoch": 94950,
        "meta_bstar": 0.0044245,
        "meta_mean_motion_dot": 6.314e-05,
        "meta_mean_motion_ddot": 0,
        "tle_line1": "1 30359U 99025ABW 25338.21293821  .00006314  00000+0  44245-2 0  9998",
        "tle_line2": "2 30359 101.6274 161.7346 0144806   3.6292 356.5876 13.93916254949506"
      },
      "geometry": {
        "type": "Point",
        "coordinates": [
          -158.37084365200622,
          -71.7551393694509
        ]
      }
    },
    {
      "type": "Feature",
      "properties": {
        "norad_id": 30360,
        "name": "FENGYUN 1C DEB",
        "group": "fengyun-1c-debris",
        "lat": 40.83901891205953,
        "lon": -123.53981530359746,
        "alt_km": 780.6202859949217,
        "timestamp": "2025-12-05T04:52:15.568236+00:00",
        "meta_object_name": "FENGYUN 1C DEB",
        "meta_object_id": "1999-025ABX",
        "meta_epoch": "2025-12-04T17:03:06.818112",
        "meta_mean_motion": 14.26408181,
        "meta_eccentricity": 0.0031546,
        "meta_inclination": 98.7665,
        "meta_ra_of_asc_node": 48.3024,
        "meta_arg_of_pericenter": 168.9277,
        "meta_mean_anomaly": 322.3317,
        "meta_ephemeris_type": 0,
        "meta_classification_type": "U",
        "meta_norad_cat_id": 30360,
        "meta_element_set_no": 999,
        "meta_rev_at_epoch": 97310,
        "meta_bstar": 0.0036306,
        "meta_mean_motion_dot": 8.743e-05,
        "meta_mean_motion_ddot": 0,
        "tle_line1": "1 30360U 99025ABX 25338.71049558  .00008743  00000+0  36306-2 0  9998",
        "tle_line2": "2 30360  98.7665  48.3024 0031546 168.9277 322.3317 14.26408181973101"
      },
      "geometry": {
        "type": "Point",
        "coordinates": [
          -123.53981530359746,
          40.83901891205953
        ]
      }
    },
    {
      "type": "Feature",
      "properties": {
        "norad_id": 30361,
        "name": "FENGYUN 1C DEB",
        "group": "fengyun-1c-debris",
        "lat": -81.41650647460686,
        "lon": 107.8423879716743,
        "alt_km": 852.5472069584075,
        "timestamp": "2025-12-05T04:52:15.568246+00:00",
        "meta_object_name": "FENGYUN 1C DEB",
        "meta_object_id": "1999-025ABY",
        "meta_epoch": "2025-12-04T00:39:12.860352",
        "meta_mean_motion": 14.25299559,
        "meta_eccentricity": 0.00658117,
        "meta_inclination": 98.5698,
        "meta_ra_of_asc_node": 14.1569,
        "meta_arg_of_pericenter": 56.2503,
        "meta_mean_anomaly": 304.4925,
        "meta_ephemeris_type": 0,
        "meta_classification_type": "U",
        "meta_norad_cat_id": 30361,
        "meta_element_set_no": 999,
        "meta_rev_at_epoch": 97492,
        "meta_bstar": 0.0017188689,
        "meta_mean_motion_dot": 4.098e-05,
        "meta_mean_motion_ddot": 0,
        "tle_line1": "1 30361U 99025ABY 25338.02723218  .00004098  00000+0  17189-2 0  9992",
        "tle_line2": "2 30361  98.5698  14.1569 0065811  56.2503 304.4925 14.25299559974927"
      },
      "geometry": {
        "type": "Point",
        "coordinates": [
          107.8423879716743,
          -81.41650647460686
        ]
      }
    },
    {
      "type": "Feature",
      "properties": {
        "norad_id": 30362,
        "name": "FENGYUN 1C DEB",
        "group": "fengyun-1c-debris",
        "lat": -75.56303692156236,
        "lon": -59.80892554613351,
        "alt_km": 851.6200583855298,
        "timestamp": "2025-12-05T04:52:15.568255+00:00",
        "meta_object_name": "FENGYUN 1C DEB",
        "meta_object_id": "1999-025ABZ",
        "meta_epoch": "2025-12-03T05:36:36.199584",
        "meta_mean_motion": 14.11672676,
        "meta_eccentricity": 0.0096301,
        "meta_inclination": 99.0505,
        "meta_ra_of_asc_node": 259.9532,
        "meta_arg_of_pericenter": 9.7879,
        "meta_mean_anomaly": 350.5139,
        "meta_ephemeris_type": 0,
        "meta_classification_type": "U",
        "meta_norad_cat_id": 30362,
        "meta_element_set_no": 999,
        "meta_rev_at_epoch": 96034,
        "meta_bstar": 0.003812,
        "meta_mean_motion_dot": 7.206e-05,
        "meta_mean_motion_ddot": 0,
        "tle_line1": "1 30362U 99025ABZ 25337.23375231  .00007206  00000+0  38120-2 0  9995",
        "tle_line2": "2 30362  99.0505 259.9532 0096301   9.7879 350.5139 14.11672676960347"
      },
      "geometry": {
        "type": "Point",
        "coordinates": [
          -59.80892554613351,
          -75.56303692156236
        ]
      }
    },
    {
      "type": "Feature",
      "properties": {
        "norad_id": 30363,
        "name": "FENGYUN 1C DEB",
        "group": "fengyun-1c-debris",
        "lat": 37.60176318511596,
        "lon": 43.189876975399095,
        "alt_km": 780.0502859606595,
        "timestamp": "2025-12-05T04:52:15.568264+00:00",
        "meta_object_name": "FENGYUN 1C DEB",
        "meta_object_id": "1999-025ACA",
        "meta_epoch": "2025-12-03T03:32:29.233248",
        "meta_mean_motion": 14.1678675,
        "meta_eccentricity": 0.00801556,
        "meta_inclination": 99.0314,
        "meta_ra_of_asc_node": 48.1398,
        "meta_arg_of_pericenter": 66.9897,
        "meta_mean_anomaly": 293.9706,
        "meta_ephemeris_type": 0,
        "meta_classification_type": "U",
        "meta_norad_cat_id": 30363,
        "meta_element_set_no": 999,
        "meta_rev_at_epoch": 96688,
        "meta_bstar": 0.0018687848,
        "meta_mean_motion_dot": 3.816e-05,
        "meta_mean_motion_ddot": 0,
        "tle_line1": "1 30363U 99025ACA 25337.14756057  .00003816  00000+0  18688-2 0  9995",
        "tle_line2": "2 30363  99.0314  48.1398 0080155  66.9897 293.9706 14.16786750966888"
      },
      "geometry": {
        "type": "Point",
        "coordinates": [
          43.189876975399095,
          37.60176318511596
        ]
      }
    },
    {
      "type": "Feature",
      "properties": {
        "norad_id": 30364,
        "name": "FENGYUN 1C DEB",
        "group": "fengyun-1c-debris",
        "lat": 22.21027599681976,
        "lon": 79.51525767725866,
        "alt_km": 1076.2469236617962,
        "timestamp": "2025-12-05T04:52:15.568273+00:00",
        "meta_object_name": "FENGYUN 1C DEB",
        "meta_object_id": "1999-025ACB",
        "meta_epoch": "2025-12-01T12:50:41.724960",
        "meta_mean_motion": 14.16673291,
        "meta_eccentricity": 0.03345489,
        "meta_inclination": 98.1359,
        "meta_ra_of_asc_node": 252.8044,
        "meta_arg_of_pericenter": 352.9961,
        "meta_mean_anomaly": 188.5388,
        "meta_ephemeris_type": 0,
        "meta_classification_type": "U",
        "meta_norad_cat_id": 30364,
        "meta_element_set_no": 999,
        "meta_rev_at_epoch": 95482,
        "meta_bstar": 0.0039205602,
        "meta_mean_motion_dot": 0.00013549,
        "meta_mean_motion_ddot": 0,
        "tle_line1": "1 30364U 99025ACB 25335.53520515  .00013549  00000+0  39206-2 0  9998",
        "tle_line2": "2 30364  98.1359 252.8044 0334548 352.9961 188.5388 14.16673291954829"
      },
      "geometry": {
        "type": "Point",
        "coordinates": [
          79.51525767725866,
          22.21027599681976
        ]
      }
    },
    {
      "type": "Feature",
      "properties": {
        "norad_id": 30365,
        "name": "FENGYUN 1C DEB",
        "group": "fengyun-1c-debris",
        "lat": -68.41486541690749,
        "lon": -3.6725829806226353,
        "alt_km": 946.0910463078317,
        "timestamp": "2025-12-05T04:52:15.568282+00:00",
        "meta_object_name": "FENGYUN 1C DEB",
        "meta_object_id": "1999-025ACC",
        "meta_epoch": "2025-12-03T23:00:49.912992",
        "meta_mean_motion": 14.19217218,
        "meta_eccentricity": 0.01677479,
        "meta_inclination": 98.6185,
        "meta_ra_of_asc_node": 332.5757,
        "meta_arg_of_pericenter": 136.6363,
        "meta_mean_anomaly": 280.03,
        "meta_ephemeris_type": 0,
        "meta_classification_type": "U",
        "meta_norad_cat_id": 30365,
        "meta_element_set_no": 999,
        "meta_rev_at_epoch": 97488,
        "meta_bstar": 0.00032793125,
        "meta_mean_motion_dot": 7.49e-06,
        "meta_mean_motion_ddot": 0,
        "tle_line1": "1 30365U 99025ACC 25337.95891103  .00000749  00000+0  32793-3 0  9994",
        "tle_line2": "2 30365  98.6185 332.5757 0167747 136.6363 280.0300 14.19217218974883"
      },
      "geometry": {
        "type": "Point",
        "coordinates": [
          -3.6725829806226353,
          -68.41486541690749
        ]
      }
    }
  ]
}